     2.10           G: GLONASS NAV DATA                     RINEX VERSION / TYPE
teqc  2015Jun23                         20210714 01:25:50UTCPGM / RUN BY / DATE
Linux 2.4.21-27.ELsmp|Opteron|gcc -static|Linux x86_64|=+   COMMENT
  2021     6    20    2.933666110039D-08                    CORR TO SYSTEM TIME
                                                            END OF HEADER
22 21  6 21 19 45  0.0-1.188535243273D-04-1.818989403546D-12 7.020000000000D+04
   -8.597293457031D+03-2.831849098206D+00 1.862645149231D-09 0.000000000000D+00
    1.129679492188D+04 6.489696502686D-01-0.000000000000D+00-3.000000000000D+00
   -2.118864843750D+04 1.505051612854D+00 1.862645149231D-09 0.000000000000D+00
21 21  6 21 20 15  0.0-2.182479947805D-04-2.728484105319D-12 7.200000000000D+04
   -2.355489550781D+04-2.907876968384D-01-1.862645149231D-09 0.000000000000D+00
    9.409325195312D+03 3.501281738281D-01-2.793967723846D-09 4.000000000000D+00
   -2.842763671875D+03 3.575476646423D+00 1.862645149231D-09 0.000000000000D+00
 1 21  6 21 20 15  0.0 8.120480924845D-05 0.000000000000D+00 7.200000000000D+04
    1.484519531250D+03-1.170673370361D-01 9.313225746155D-10 0.000000000000D+00
    2.303939697266D+04 1.487651824951D+00-1.862645149231D-09 1.000000000000D+00
    1.087128515625D+04-3.136474609375D+00-1.862645149231D-09 0.000000000000D+00
 7 21  6 21 20 15  0.0-4.226434975863D-05-0.000000000000D+00 7.200000000000D+04
   -1.140201660156D+04 5.600881576538D-01 9.313225746155D-10 0.000000000000D+00
    1.363273242188D+04-2.446751594543D+00-9.313225746155D-10 5.000000000000D+00
   -1.823774072266D+04-2.177981376648D+00 1.862645149231D-09 0.000000000000D+00
 8 21  6 21 20 15  0.0-5.960930138826D-05-0.000000000000D+00 7.200000000000D+04
   -6.523685546875D+03 2.589006423950D-01 1.862645149231D-09 0.000000000000D+00
    2.431726904297D+04-5.143117904663D-01-1.862645149231D-09 6.000000000000D+00
   -3.978410156250D+03-3.518063545227D+00-0.000000000000D+00 0.000000000000D+00
12 21  6 21 20 15  0.0 2.390732988715D-04 2.728484105319D-12 7.200000000000D+04
    1.463488916016D+04-9.160108566284D-01 2.793967723846D-09 0.000000000000D+00
    1.850301171875D+04-9.689683914185D-01-0.000000000000D+00-1.000000000000D+00
    9.711257324219D+03 3.237487792969D+00-3.725290298462D-09 0.000000000000D+00
22 21  6 21 20 15  0.0-1.188572496176D-04-1.818989403546D-12 7.200000000000D+04
   -1.320630615234D+04-2.251399040222D+00 0.000000000000D+00 0.000000000000D+00
    1.273698291016D+04 9.174957275391D-01-9.313225746155D-10-3.000000000000D+00
   -1.769476611328D+04 2.352061271667D+00 1.862645149231D-09 0.000000000000D+00
21 21  6 21 20 45  0.0-2.182526513934D-04-2.728484105319D-12 7.380000000000D+04
   -2.330597216797D+04 5.502166748047D-01-3.725290298462D-09 0.000000000000D+00
    9.750605957031D+03-9.771347045898D-03-1.862645149231D-09 4.000000000000D+00
    3.619800781250D+03 3.558592796326D+00 9.313225746155D-10 0.000000000000D+00
 1 21  6 21 20 45  0.0 8.120667189360D-05 0.000000000000D+00 7.380000000000D+04
    1.519438964844D+03 1.198339462280D-01 9.313225746155D-10 0.000000000000D+00
    2.500164257812D+04 6.711921691895D-01-1.862645149231D-09 1.000000000000D+00
    4.878683593750D+03-3.478788375854D+00-9.313225746155D-10 0.000000000000D+00
 7 21  6 21 20 45  0.0-4.226528108120D-05-0.000000000000D+00 7.380000000000D+04
   -1.067664306641D+04 2.203788757324D-01 0.000000000000D+00 0.000000000000D+00
    8.751694824219D+03-2.934090614319D+00-0.000000000000D+00 5.000000000000D+00
   -2.139865429688D+04-1.311244010925D+00 2.793967723846D-09 0.000000000000D+00
 8 21  6 21 20 45  0.0-5.961023271084D-05-0.000000000000D+00 7.380000000000D+04
   -6.055127441406D+03 2.211570739746D-01 9.313225746155D-10 0.000000000000D+00
    2.260265722656D+04-1.379734039307D+00-1.862645149231D-09 6.000000000000D+00
   -1.007460986328D+04-3.211294174194D+00 9.313225746155D-10 0.000000000000D+00
12 21  6 21 20 45  0.0 2.390788868070D-04 3.637978807092D-12 7.380000000000D+04
    1.230933154297D+04-1.665781021118D+00 9.313225746155D-10 0.000000000000D+00
    1.649363574219D+04-1.219359397888D+00-9.313225746155D-10-1.000000000000D+00
    1.508830859375D+04 2.698334693909D+00-2.793967723846D-09 0.000000000000D+00
22 21  6 21 20 45  0.0-1.188619062304D-04-1.818989403546D-12 7.380000000000D+04
   -1.659506347656D+04-1.493046760559D+00-0.000000000000D+00 0.000000000000D+00
    1.445886669922D+04 9.525413513184D-01-1.862645149231D-09-3.000000000000D+00
   -1.283004736328D+04 3.018166542053D+00 1.862645149231D-09 0.000000000000D+00
 2 21  6 21 20 45  0.0 4.832157865167D-04 9.094947017729D-13 7.527000000000D+04
    9.267006347656D+03-1.038408279419D-01 0.000000000000D+00 0.000000000000D+00
    1.113686035156D+04 2.868332862854D+00-9.313225746155D-10-4.000000000000D+00
    2.102331347656D+04-1.482019424438D+00-2.793967723846D-09 0.000000000000D+00
23 21  6 21 20 45  0.0-7.993541657925D-06-0.000000000000D+00 7.539000000000D+04
    3.939617187500D+03-2.864049911499D+00 3.725290298462D-09 0.000000000000D+00
    9.656892578125D+03 1.405828475952D+00 0.000000000000D+00 3.000000000000D+00
   -2.329267382812D+04 9.852123260498D-02 1.862645149231D-09 0.000000000000D+00
23 21  6 21 21 15  0.0-7.994472980499D-06-0.000000000000D+00 7.560000000000D+04
   -9.215693359375D+02-2.495155334473D+00 1.862645149231D-09 0.000000000000D+00
    1.252090429688D+04 1.744142532349D+00-0.000000000000D+00 3.000000000000D+00
   -2.221869873047D+04 1.087066650391D+00 1.862645149231D-09 0.000000000000D+00
 1 21  6 21 21 15  0.0 8.120760321617D-05 0.000000000000D+00 7.560000000000D+04
    1.775587890625D+03 1.243124008179D-01 9.313225746155D-10 0.000000000000D+00
    2.541188232422D+04-2.178955078125D-01-1.862645149231D-09 1.000000000000D+00
   -1.490730957031D+03-3.552430152893D+00-0.000000000000D+00 0.000000000000D+00
 2 21  6 21 21 15  0.0 4.832185804844D-04 9.094947017729D-13 7.560000000000D+04
    9.445173828125D+03 2.795305252075D-01 0.000000000000D+00 0.000000000000D+00
    1.590520800781D+04 2.386116027832D+00-1.862645149231D-09-4.000000000000D+00
    1.757929492188D+04-2.320102691650D+00-2.793967723846D-09 0.000000000000D+00
 8 21  6 21 21 15  0.0-5.961209535599D-05-0.000000000000D+00 7.560000000000D+04
   -5.863650390625D+03-4.204654693604D-02 9.313225746155D-10 0.000000000000D+00
    1.942408154297D+04-2.122673988342D+00-9.313225746155D-10 6.000000000000D+00
   -1.538879296875D+04-2.654732704163D+00 9.313225746155D-10 0.000000000000D+00
12 21  6 21 21 15  0.0 2.390854060650D-04 3.637978807092D-12 7.560000000000D+04
    8.680182617188D+03-2.345626831055D+00-0.000000000000D+00 0.000000000000D+00
    1.427213720703D+04-1.206578254700D+00-9.313225746155D-10-1.000000000000D+00
    1.930026757812D+04 1.951388359070D+00-2.793967723846D-09 0.000000000000D+00
21 21  6 21 21 15  0.0-2.182573080063D-04-2.728484105319D-12 7.560000000000D+04
   -2.166743359375D+04 1.236609458923D+00-4.656612873077D-09 0.000000000000D+00
    9.252680664062D+03-5.708322525024D-01-1.862645149231D-09 4.000000000000D+00
    9.802857421875D+03 3.266900062561D+00 9.313225746155D-10 0.000000000000D+00
22 21  6 21 21 15  0.0-1.188656315207D-04-1.818989403546D-12 7.560000000000D+04
   -1.854158300781D+04-6.687927246094D-01-1.862645149231D-09 0.000000000000D+00
    1.600442919922D+04 7.196807861328D-01-1.862645149231D-09-3.000000000000D+00
   -6.969756835938D+03 3.450895309448D+00 1.862645149231D-09 0.000000000000D+00
23 21  6 21 21 45  0.0-7.995404303074D-06-0.000000000000D+00 7.740000000000D+04
   -4.916431640625D+03-1.916440963745D+00 0.000000000000D+00 0.000000000000D+00
    1.579662353516D+04 1.851738929749D+00-9.313225746155D-10 3.000000000000D+00
   -1.942960156250D+04 1.991878509521D+00 1.862645149231D-09 0.000000000000D+00
 1 21  6 21 21 45  0.0 8.120853453875D-05 0.000000000000D+00 7.740000000000D+04
    1.824106933594D+03-1.078100204468D-01 9.313225746155D-10 0.000000000000D+00
    2.424321435547D+04-1.063905715942D+00-1.862645149231D-09 1.000000000000D+00
   -7.744978027344D+03-3.351640701294D+00 0.000000000000D+00 0.000000000000D+00
 2 21  6 21 21 45  0.0 4.832204431295D-04 9.094947017729D-13 7.740000000000D+04
    1.016799267578D+04 4.884319305420D-01 0.000000000000D+00 0.000000000000D+00
    1.959193847656D+04 1.680146217346D+00-1.862645149231D-09-4.000000000000D+00
    1.277794775391D+04-2.980294227600D+00-1.862645149231D-09 0.000000000000D+00
 8 21  6 21 21 45  0.0-5.961302667856D-05-0.000000000000D+00 7.740000000000D+04
   -6.305734863281D+03-4.695816040039D-01 0.000000000000D+00 0.000000000000D+00
    1.509364013672D+04-2.645748138428D+00-9.313225746155D-10 6.000000000000D+00
   -1.950717333984D+04-1.891271591187D+00 1.862645149231D-09 0.000000000000D+00
21 21  6 21 21 45  0.0-2.182628959417D-04-2.728484105319D-12 7.740000000000D+04
   -1.899775341797D+04 1.685074806213D+00-4.656612873077D-09 0.000000000000D+00
    7.625890136719D+03-1.247284889221D+00-9.313225746155D-10 4.000000000000D+00
    1.522877148438D+04 2.722748756409D+00 0.000000000000D+00 0.000000000000D+00
22 21  6 21 21 45  0.0-1.188702881336D-04-1.818989403546D-12 7.740000000000D+04
   -1.903504785156D+04 1.019954681396D-01-2.793967723846D-09 0.000000000000D+00
    1.689561132812D+04 2.315301895142D-01-9.313225746155D-10-3.000000000000D+00
   -5.679326171875D+02 3.615818977356D+00 1.862645149231D-09 0.000000000000D+00
12 21  6 21 21 45  0.0 2.390909940004D-04 3.637978807092D-12 7.752000000000D+04
    3.971056640625D+03-2.849675178528D+00-1.862645149231D-09 0.000000000000D+00
    1.228856982422D+04-9.640827178955D-01-9.313225746155D-10-1.000000000000D+00
    2.202311767578D+04 1.054504394531D+00-1.862645149231D-09 0.000000000000D+00
23 21  6 21 22 15  0.0-7.996335625648D-06-0.000000000000D+00 7.920000000000D+04
   -7.755935058594D+03-1.230144500732D+00-0.000000000000D+00 0.000000000000D+00
    1.901865917969D+04 1.680044174194D+00-9.313225746155D-10 3.000000000000D+00
   -1.514029003906D+04 2.743163108826D+00 1.862645149231D-09 0.000000000000D+00
